GLOBALSTAR M084         
1 38040U 11080A   25310.54547861 -.00000080  00000+0  13518-3 0  9995
2 38040  52.0024 335.0846 0000375  38.2057 123.1171 12.62264768640649
GLOBALSTAR M080         
1 38041U 11080B   25310.51504865 -.00000072  00000+0  17793-3 0  9990
2 38041  52.0078 336.8188 0000743 111.4288  41.0438 12.62270378640767
GLOBALSTAR M082         
1 38042U 11080C   25310.26218079 -.00000095  00000+0  50291-4 0  9998
2 38042  52.0082 293.0650 0000578  97.9249 275.1189 12.62264599641449
GLOBALSTAR M092         
1 38043U 11080D   25310.58064953 -.00000093  00000+0  61311-4 0  9997
2 38043  52.0106  22.4788 0000509 109.4184  30.7843 12.62267455639931
GLOBALSTAR M090         
1 38044U 11080E   25310.64052492 -.00000097  00000+0  40352-4 0  9996
2 38044  52.0129 285.7977 0000330  76.5765  95.6121 12.62263821641601
GLOBALSTAR M086         
1 38045U 11080F   25310.66498730 -.00000081  00000+0  12516-3 0  9991
2 38045  51.9902 286.0150 0000672 296.7638 234.0877 12.62279173641558
GLOBALSTAR M097         
1 39072U 13005A   25310.73432779 -.00000068  00000+0  19743-3 0  9994
2 39072  52.0038 200.5032 0000714  79.8003 280.2944 12.62267025588814
GLOBALSTAR M093         
1 39073U 13005B   25310.62913802 -.00000050  00000+0  30024-3 0  9990
2 39073  52.0091 194.0863 0000649  97.2746 262.8194 12.62270244588751
